NAVSTAR 48 (USA 151)    
1 26407U 00040A   26170.75577000  .00000021  00000+0  00000+0 0  9991
2 26407  54.8511 215.0602 0121007 302.4941  35.9155  2.00557689189991
NAVSTAR 51 (USA 166)    
1 27663U 03005A   26170.65226116  .00000021  00000+0  00000+0 0  9998
2 27663  54.8818 214.8709 0147948  53.0795 346.6120  2.00560431171364
NAVSTAR 54 (USA 177)    
1 28190U 04009A   26170.93398260 -.00000061  00000+0  00000+0 0  9995
2 28190  54.8273 275.5762 0116259 173.2047 222.9789  2.00554618163003
NAVSTAR 56 (USA 180)    
1 28474U 04045A   26170.54546882 -.00000090  00000+0  00000+0 0  9994
2 28474  55.1343 324.8011 0169883 316.4803 224.1359  2.00555949158477
NAVSTAR 57 (USA 183)    
1 28874U 05038A   26170.78841874 -.00000057  00000+0  00000+0 0  9999
2 28874  54.8758 273.0725 0127893 296.1815  23.6490  2.00565470151882
INMARSAT 4-F2           
1 28899U 05044A   26170.61656823 -.00000268  00000+0  00000+0 0  9997
2 28899   5.0990  43.7040 0002945  35.9125 193.6644  1.00270821 75549
NAVSTAR 58 (USA 190)    
1 29486U 06042A   26169.13028664  .00000049  00000+0  00000+0 0  9996
2 29486  54.7109 151.3015 0106649  54.4413  46.6051  2.00569747144416
NAVSTAR 59 (USA 192)    
1 29601U 06052A   26167.42124558  .00000054  00000+0  00000+0 0  9991
2 29601  54.9348 214.0365 0085218  90.8278 270.2339  2.00557832143390
NAVSTAR 60 (USA 196)    
1 32260U 07047A   26170.71783059 -.00000039  00000+0  00000+0 0  9998
2 32260  54.0970  79.9613 0166853  87.4321 274.4926  2.00555058136867
COSMOS 2433 [GLONASS-M] 
1 32275U 07052A   26169.32339645 -.00000055  00000+0  00000+0 0  9991
2 32275  65.5762 315.8954 0002576 193.7419 166.2393  2.13103991145088
COSMOS 2432 [GLONASS-M] 
1 32276U 07052B   26169.43377550 -.00000056  00000+0  00000+0 0  9992
2 32276  65.5932 316.0195 0007652 331.4172  57.1212  2.13103035145116
NAVSTAR 61 (USA 199)    
1 32384U 07062A   26170.78295955 -.00000058  00000+0  00000+0 0  9993
2 32384  55.0295 274.0483 0035782 165.7534   8.6688  2.00560219135563
COSMOS 2434 [GLONASS-M] 
1 32393U 07065A   26168.15492016  .00000065  00000+0  00000+0 0  9998
2 32393  64.3178 191.9169 0001197 336.0402  97.3647  2.13101292143772
COSMOS 2436 [GLONASS-M] 
1 32395U 07065C   26170.29443221  .00000057  00000+0  00000+0 0  9993
2 32395  64.3268 191.9169 0017262 353.8381  53.2291  2.13100044143777
NAVSTAR 62 (USA 201)    
1 32711U 08012A   26170.62891196  .00000060  00000+0  00000+0 0  9997
2 32711  54.4978 149.8272 0211314 247.8760 109.8447  2.00572461133807
NAVSTAR 64 (USA 206)    
1 35752U 09043A   26170.63033433 -.00000093  00000+0  00000+0 0  9990
2 35752  56.2119  27.3556 0053757  83.3060 287.3304  2.00554110123419
COSMOS 2456 [GLONASS-M] 
1 36111U 09070A   26170.35461873 -.00000034  00000+0  00000+0 0  9997
2 36111  65.0124  70.8982 0004528 334.2315 144.8560  2.13103516128478
COSMOS 2457 [GLONASS-M] 
1 36112U 09070B   26170.28409466 -.00000033  00000+0  00000+0 0  9999
2 36112  64.9980  70.7445 0002927 121.9797  70.3947  2.13101026128472
COSMOS 2460 [GLONASS-M] 
1 36402U 10007C   26170.50207319 -.00000058  00000+0  00000+0 0  9998
2 36402  65.4189 314.3886 0002124 112.6224 248.9388  2.13101465126789
NAVSTAR 65 (USA 213)    
1 36585U 10022A   26170.94663939  .00000030  00000+0  00000+0 0  9998
2 36585  54.2700 208.4508 0126393  66.1309 291.6490  2.00562559117647
BEIDOU-2 IGSO-1         
1 36828U 10036A   26170.91409012 -.00000079  00000+0  00000+0 0  9994
2 36828  54.3039 162.9339 0059154 225.2786 316.6220  1.00271421 58126
BEIDOU-2 G4             
1 37210U 10057A   26170.85334840 -.00000119  00000+0  00000+0 0  9997
2 37210   3.6546  68.9353 0005254 196.1319 110.1998  1.00270665 57311
BEIDOU-2 IGSO-2         
1 37256U 10068A   26170.91319610 -.00000225  00000+0  00000+0 0  9992
2 37256  47.5419 271.7972 0055919 212.8118 220.2454  1.00282229 56828
BEIDOU-2 IGSO-3         
1 37384U 11013A   26169.61194170 -.00000190  00000+0  00000+0 0  9993
2 37384  62.4088  40.1377 0034295 184.6608  10.0015  1.00267082 55679
GSAT-8                  
1 37605U 11022A   26170.11968523  .00000078  00000+0  00000+0 0  9991
2 37605   2.1371  81.8005 0002058 198.1712  85.5454  1.00271297 53236
BEIDOU-2 IGSO-4         
1 37763U 11038A   26170.97170663  .00000022  00000+0  00000+0 0  9996
2 37763  54.6006 165.6472 0159516 231.4774 314.4028  1.00284537 54679
GSAT0101 (GALILEO-PFM)  
1 37846U 11060A   26170.19473940 -.00000094  00000+0  00000+0 0  9991
2 37846  56.9937 341.7065 0002990  53.3473 306.6739  1.70475642 91156
GSAT0102 (GALILEO-FM2)  
1 37847U 11060B   26170.11569855 -.00000094  00000+0  00000+0 0  9995
2 37847  56.9943 341.7092 0003007  14.4392 342.6958  1.70475868 91155
COSMOS 2476 [GLONASS-M] 
1 37867U 11064A   26169.63043072 -.00000025  00000+0  00000+0 0  9998
2 37867  65.2707  72.8228 0022663 238.8292 313.0156  2.13103712113792
COSMOS 2477 [GLONASS-M] 
1 37868U 11064B   26170.32537453 -.00000030  00000+0  00000+0 0  9994
2 37868  65.2775  72.8786 0019692 240.1394 305.1787  2.13102883113806
COSMOS 2475 [GLONASS-M] 
1 37869U 11064C   26171.32600170 -.00000040  00000+0  00000+0 0  9994
2 37869  65.2846  72.8665 0025256 252.6205 295.4524  2.13101755113834
